ORBCOMM FM24            
1 25478U 98053D   25229.71453626  .00000819  00000+0  31341-3 0  9997
2 25478  45.0094 337.3429 0003816 193.9347 166.1397 14.38219658406308
ORBCOMM FM25            
1 25479U 98053E   25229.68708584  .00000895  00000+0  33841-3 0  9991
2 25479  45.0086 335.7524 0006217 198.6895 161.3725 14.38190821406599
ORBCOMM FM26            
1 25480U 98053F   25229.60014011  .00000635  00000+0  25853-3 0  9996
2 25480  45.0083 333.0686 0008043 211.4758 148.5609 14.37230732406581
ORBCOMM FM27            
1 25481U 98053G   25229.60400447  .00000869  00000+0  32972-3 0  9998
2 25481  45.0069 336.3267 0002527 206.6920 153.3799 14.38221733406558
ORBCOMM FM28            
1 25482U 98053H   25229.84220470  .00000539  00000+0  22144-3 0  9995
2 25482  45.0050 272.6124 0006999 250.7847 109.2244 14.38394030407230
ORBCOMM FM30            
1 25980U 99065A   25229.86113894  .00000784  00000+0  30716-3 0  9991
2 25980  45.0309 157.7697 0008174 320.7012  39.3242 14.37396429343320
ORBCOMM FM31            
1 25981U 99065B   25229.83707262  .00000711  00000+0  28335-3 0  9991
2 25981  45.0223 151.3578 0005537 340.7566  19.3073 14.37331796342875
ORBCOMM FM32            
1 25982U 99065C   25230.20274460  .00000792  00000+0  31609-3 0  9991
2 25982  45.0149 166.6226 0008014 336.8018  23.2467 14.36381789343646
